Distributor Name,City,State,Catalogs,Phone Number
New Pyare Lal,Chandigarh,Chandigarh,Woodrica,9872976291
Krishna Traders,Raipur,Chhattisgarh,"Artis, Woodrica",7000752310
Mahadev Trading Co.,Delhi,Delhi NCR,Artvio,9899501238
Kailash Sales Corp,Ahemdabad,Gujarat,"Artis, Artvio",9712930272
Alpha Laminates,Rajkot,Gujarat,"Artis, Artvio",8511660700
Samarpan Laminates,Vadodara,Gujarat,"Artis, Artvio",9904336667
SK Enterprises,Gurugram,Haryana,Artvio,8505880777
Mica Sales,Gurugram,Haryana,"Artis, Woodrica",9711111891
Singal Developers,Hisar,Haryana,Artvio,9996655504
R.D. Trading Co.,Hisar,Haryana,Woodrica,9416543800
Rahul Trading,Kaithal,Haryana,Woodrica,9255378000
Vrinda Lam,Dhanbad,Jharkhand,"Artis, Artvio",9681133399
Saawariya Lam,Ranchi,Jharkhand,"Artis, Artvio, Woodrica",9681133399
Shruti Ply Agency,Belgaum,Karnataka,"Artis, Woodrica",9164260555
Balaji Trading,Bengluru,Karnataka,"Artis, Woodrica",9343685463
Euro Surface Décor,Bengluru,Karnataka,Artvio,7795557810
Pakeeza Ply,Srinagar,Kashmir,Woodrica,9906178440
Banke Bihari Traders,Bhopal,Madhya Pradesh,"Artvio, Artis",8982913109
Seth Interio,Gwalior,Madhya Pradesh,"Artis, Woodrica, Artvio",9753545763
VIP Laminates,Indore,Madhya Pradesh,"Artvio, Artis",7771011100
Siddhi Vinayak Dist.,Jabalpur,Madhya Pradesh,"Artis, Artvio",9425158344
GS Traders,Satna,Madhya Pradesh,Woodrica,9981484242
Shri Krishna Plywood,Singrauli,Madhya Pradesh,"Artis, Artvio",8004555379
Gajanan Traders,Dhuliya,Maharashtra,Woodrica,9423516483
Shankar Glass,Gondia,Maharashtra,"Artis, Woodrica",9372261000
Golden Plywood,Kolhapur,Maharashtra,Woodrica,9922783505
Shiv Laminates,Latur,Maharashtra,Woodrica,9923632000
Rajgiri Ply & Wood,Mumbai,Maharashtra,"Artis, Artvio",9819664001
Shree Mahalaxmi Lam,Nagpur,Maharashtra,"Artis, Woodrica",9422818646
Keshriya Distributors,Pune,Maharashtra,"Artis, Artvio",7385036888
Lotus Plywood Agency,Pune,Maharashtra,"Artis, Woodrica",9371022347
Star Laminate,Thane,Maharashtra,Artvio,8655191912
Bharat Timber & Ply,Vasai,Maharashtra,"Artis, Artvio",9545336644
Shree OM Traders,Amritsar,Punjab,Artvio,9815623662
Goyal Laminates,Bathinda,Punjab,"Woodrica, Artis",9646200927
National Traders,Bathinda,Punjab,Artvio,9818355300
Guru Nanak Sales,Jalandhar,Punjab,Woodrica,7696727277
Garg Plywood and Laminates,Ludhiana,Punjab,Artvio,9417177480
Rajkot Timber,Patiala,Punjab,"Artis, Woodrica",9814460253
Satyam Laminates,Jaipur,Rajasthan,Artvio,9983963390
Mittal Traders,Jaipur,Rajasthan,"Artis, Woodrica",9460126077
Perfect Plywood,Udaipur,Rajasthan,Artvio,9610019541
Sri Balaji Wood Decor,Hyderabad,Telangana,"Artis, Woodrica",9246177711
Bhavya Laminates,Hyderabad,Telangana,Artvio,9908666648
Shri Radhey Hardware,Agra,Uttar Pradesh,Woodrica,8909545915
Tulsi Enterprises,Bareilly,Uttar Pradesh,Woodrica,9897608201
Kanha Plywood and H/W,Jhansi,Uttar Pradesh,"Artis, Woodrica",9919762802
Jindal Trading Co.,Kanpur,Uttar Pradesh,Artvio,9935336688
Das Plywood,Kanpur,Uttar Pradesh,Woodrica,9839402737
Innovative World,Kanpur,Uttar Pradesh,Artis,9336256680
GR Traders,Lucknow,Uttar Pradesh,Artvio,9005969966
Janta Laminates,Meerut,Uttar Pradesh,"Artis, Woodrica",7668457853
Tulsi Enterprises,Rampur,Uttar Pradesh,Woodrica,9897608201
Gopalji Laminates,Dehradun,Uttarakhand,Woodrica,9897584440
Liberty Plywood,Haldwani,Uttarakhand,Artvio,9012222786
J H Sunmica,Kashipur,Uttarakhand,Woodrica,8126581972
Lakhani Trading Co.,Roorkee,Uttarakhand,"Artis, Artvio",9634858888
OM Sundaram,Kolkata,West Bengal,"Artis, Artvio",9903532013
JRM Décor,Kolkata,West Bengal,Woodrica,9831322926